[
    {
        "OBJECT_NAME": "COSMOS 2309 [GLONASS]",
        "OBJECT_ID": "1995-009C",
        "EPOCH": "2025-04-28T08:30:44.540352",
        "MEAN_MOTION": 2.13051968,
        "ECCENTRICITY": 0.0035266,
        "INCLINATION": 64.2861,
        "RA_OF_ASC_NODE": 316.0415,
        "ARG_OF_PERICENTER": 214.0774,
        "MEAN_ANOMALY": 323.8385,
        "EPHEMERIS_TYPE": 0,
        "CLASSIFICATION_TYPE": "U",
        "NORAD_CAT_ID": 23513,
        "ELEMENT_SET_NO": 999,
        "REV_AT_EPOCH": 23446,
        "BSTAR": 0,
        "MEAN_MOTION_DOT": -3.2e-07,
        "MEAN_MOTION_DDOT": 0
    },
    {
        "OBJECT_NAME": "COSMOS 2316 [GLONASS]",
        "OBJECT_ID": "1995-037A",
        "EPOCH": "2025-04-30T07:24:20.601792",
        "MEAN_MOTION": 2.13101587,
        "ECCENTRICITY": 0.0012944,
        "INCLINATION": 65.4691,
        "RA_OF_ASC_NODE": 216.1733,
        "ARG_OF_PERICENTER": 155.2596,
        "MEAN_ANOMALY": 212.5951,
        "EPHEMERIS_TYPE": 0,
        "CLASSIFICATION_TYPE": "U",
        "NORAD_CAT_ID": 23620,
        "ELEMENT_SET_NO": 999,
        "REV_AT_EPOCH": 23164,
        "BSTAR": 0,
        "MEAN_MOTION_DOT": 2.3e-07,
        "MEAN_MOTION_DDOT": 0
    },
    {
        "OBJECT_NAME": "COSMOS 2323 [GLONASS]",
        "OBJECT_ID": "1995-068C",
        "EPOCH": "2025-05-01T09:45:23.313312",
        "MEAN_MOTION": 2.13103789,
        "ECCENTRICITY": 0.000917,
        "INCLINATION": 65.462,
        "RA_OF_ASC_NODE": 215.9547,
        "ARG_OF_PERICENTER": 188.6853,
        "MEAN_ANOMALY": 229.9254,
        "EPHEMERIS_TYPE": 0,
        "CLASSIFICATION_TYPE": "U",
        "NORAD_CAT_ID": 23736,
        "ELEMENT_SET_NO": 999,
        "REV_AT_EPOCH": 22843,
        "BSTAR": 0,
        "MEAN_MOTION_DOT": 1e-07,
        "MEAN_MOTION_DDOT": 0
    },
    {
        "OBJECT_NAME": "COSMOS 2364 [GLONASS]",
        "OBJECT_ID": "1998-077A",
        "EPOCH": "2025-05-02T10:35:53.634336",
        "MEAN_MOTION": 2.13102782,
        "ECCENTRICITY": 0.0030588,
        "INCLINATION": 64.0639,
        "RA_OF_ASC_NODE": 74.5979,
        "ARG_OF_PERICENTER": 51.1395,
        "MEAN_ANOMALY": 121.6083,
        "EPHEMERIS_TYPE": 0,
        "CLASSIFICATION_TYPE": "U",
        "NORAD_CAT_ID": 25593,
        "ELEMENT_SET_NO": 999,
        "REV_AT_EPOCH": 20490,
        "BSTAR": 0,
        "MEAN_MOTION_DOT": -2e-08,
        "MEAN_MOTION_DDOT": 0
    },
    {
        "OBJECT_NAME": "COSMOS 2363 [GLONASS]",
        "OBJECT_ID": "1998-077B",
        "EPOCH": "2025-05-03T01:35:15.019584",
        "MEAN_MOTION": 2.13103526,
        "ECCENTRICITY": 0.0027556,
        "INCLINATION": 64.0595,
        "RA_OF_ASC_NODE": 74.5053,
        "ARG_OF_PERICENTER": 43.0041,
        "MEAN_ANOMALY": 316.3,
        "EPHEMERIS_TYPE": 0,
        "CLASSIFICATION_TYPE": "U",
        "NORAD_CAT_ID": 25594,
        "ELEMENT_SET_NO": 999,
        "REV_AT_EPOCH": 20493,
        "BSTAR": 0,
        "MEAN_MOTION_DOT": -1e-08,
        "MEAN_MOTION_DDOT": 0
    },
    {
        "OBJECT_NAME": "COSMOS 2362 [GLONASS]",
        "OBJECT_ID": "1998-077C",
        "EPOCH": "2025-05-02T23:59:13.134912",
        "MEAN_MOTION": 2.13103504,
        "ECCENTRICITY": 0.000577,
        "INCLINATION": 64.0697,
        "RA_OF_ASC_NODE": 74.6368,
        "ARG_OF_PERICENTER": 50.4344,
        "MEAN_ANOMALY": 307.3754,
        "EPHEMERIS_TYPE": 0,
        "CLASSIFICATION_TYPE": "U",
        "NORAD_CAT_ID": 25595,
        "ELEMENT_SET_NO": 999,
        "REV_AT_EPOCH": 20493,
        "BSTAR": 0,
        "MEAN_MOTION_DOT": -1e-08,
        "MEAN_MOTION_DDOT": 0
    },
    {
        "OBJECT_NAME": "COSMOS 2375 [GLONASS]",
        "OBJECT_ID": "2000-063A",
        "EPOCH": "2025-04-28T22:31:36.211584",
        "MEAN_MOTION": 2.13101741,
        "ECCENTRICITY": 0.0007416,
        "INCLINATION": 65.4318,
        "RA_OF_ASC_NODE": 327.9205,
        "ARG_OF_PERICENTER": 18.5893,
        "MEAN_ANOMALY": 341.4754,
        "EPHEMERIS_TYPE": 0,
        "CLASSIFICATION_TYPE": "U",
        "NORAD_CAT_ID": 26564,
        "ELEMENT_SET_NO": 999,
        "REV_AT_EPOCH": 19095,
        "BSTAR": 0,
        "MEAN_MOTION_DOT": -4.3e-07,
        "MEAN_MOTION_DDOT": 0
    },
    {
        "OBJECT_NAME": "COSMOS 2376 [GLONASS]",
        "OBJECT_ID": "2000-063B",
        "EPOCH": "2025-05-02T07:23:57.049152",
        "MEAN_MOTION": 2.13102497,
        "ECCENTRICITY": 0.0004964,
        "INCLINATION": 65.4348,
        "RA_OF_ASC_NODE": 327.8367,
        "ARG_OF_PERICENTER": 31.9325,
        "MEAN_ANOMALY": 95.311,
        "EPHEMERIS_TYPE": 0,
        "CLASSIFICATION_TYPE": "U",
        "NORAD_CAT_ID": 26565,
        "ELEMENT_SET_NO": 999,
        "REV_AT_EPOCH": 19106,
        "BSTAR": 0,
        "MEAN_MOTION_DOT": -5e-07,
        "MEAN_MOTION_DDOT": 0
    }
]