25593,COSMOS 2364 [GLONASS],1998,675.73,-1.0,-,64.06,Inactive,0,MEO,Kazakhstan,Russia/USSR,Unknown,Unknown,Unknown,1 25593U 98077A   25122.44159299 -.00000002  00000+0  00000+0 0  9991,2 25593  64.0639  74.5979 0030588  51.1395 121.6083  2.13102782204905,2.13102782,0.0030588,MEO
25594,COSMOS 2363 [GLONASS],1998,675.73,-1.0,-,64.06,Inactive,0,MEO,Kazakhstan,Russia/USSR,Unknown,Unknown,Unknown,1 25594U 98077B   25123.06614606 -.00000001  00000+0  00000+0 0  9998,2 25594  64.0595  74.5053 0027556  43.0041 316.3000  2.13103526204931,2.13103526,0.0027556,MEO
25595,COSMOS 2362 [GLONASS],1998,675.73,-1.0,-,64.07,Inactive,0,MEO,Kazakhstan,Russia/USSR,Unknown,Unknown,Unknown,1 25595U 98077C   25122.99945758 -.00000001  00000+0  00000+0 0  9995,2 25595  64.0697  74.6368 0005770  50.4344 307.3754  2.13103504204939,2.13103504,0.000577,MEO
26564,COSMOS 2375 [GLONASS],2000,675.73,-1.0,-,65.43,Inactive,0,MEO,Kazakhstan,Russia/USSR,Unknown,Unknown,Unknown,1 26564U 00063A   25118.93861356 -.00000043  00000+0  00000+0 0  9996,2 26564  65.4318 327.9205 0007416  18.5893 341.4754  2.13101741190954,2.13101741,0.0007416,MEO
26565,COSMOS 2376 [GLONASS],2000,675.73,-1.0,-,65.43,Inactive,0,MEO,Kazakhstan,Russia/USSR,Unknown,Unknown,Unknown,1 26565U 00063B   25122.30829918 -.00000050  00000+0  00000+0 0  9999,2 26565  65.4348 327.8367 0004964  31.9325  95.3110  2.13102497191063,2.13102497,0.0004964,MEO
23513,COSMOS 2309 [GLONASS],1995,675.89,-1.0,-,64.29,Inactive,0,MEO,Kazakhstan,Russia/USSR,Unknown,Unknown,Unknown,1 23513U 95009C   25118.35468218 -.00000032  00000+0  00000+0 0  9995,2 23513  64.2861 316.0415 0035266 214.0774 323.8385  2.13051968234466,2.13051968,0.0035266,MEO
23620,COSMOS 2316 [GLONASS],1995,675.73,-1.0,-,65.47,Inactive,0,MEO,Kazakhstan,Russia/USSR,Unknown,Unknown,Unknown,1 23620U 95037A   25120.30857178  .00000023  00000+0  00000+0 0  9999,2 23620  65.4691 216.1733 0012944 155.2596 212.5951  2.13101587231641,2.13101587,0.0012944,MEO
23736,COSMOS 2323 [GLONASS],1995,675.73,-1.0,-,65.46,Inactive,0,MEO,Kazakhstan,Russia/USSR,Unknown,Unknown,Unknown,1 23736U 95068C   25121.40651983  .00000010  00000+0  00000+0 0  9995,2 23736  65.4620 215.9547 0009170 188.6853 229.9254  2.13103789228431,2.13103789,0.000917,MEO
